{"type": "FeatureCollection", "features": [ {"type": "Feature", "properties": {"norad_id": 34432, "name": "COSMOS 2251 DEB", "group": "cosmos-2251-debris", "lat": 44.148772825340664, "lon": 133.80415367999748, "alt_km": 999.8096134392172, "timestamp": "2025-12-04T03:47:54.936376+00:00", "meta": {"OBJECT_NAME": "COSMOS 2251 DEB", "OBJECT_ID": "1993-036RZ", "EPOCH": "2025-12-03T02:28:17.071104", "MEAN_MOTION": 14.02836729, "ECCENTRICITY": 0.01831849, "INCLINATION": 73.8275, "RA_OF_ASC_NODE": 119.3014, "ARG_OF_PERICENTER": 203.436, "MEAN_ANOMALY": 276.5797, "EPHEMERIS_TYPE": 0, "CLASSIFICATION_TYPE": "U", "NORAD_CAT_ID": 34432, "ELEMENT_SET_NO": 999, "REV_AT_EPOCH": 85549, "BSTAR": 0.0016054633, "MEAN_MOTION_DOT": 2.856e-05, "MEAN_MOTION_DDOT": 0}, "tle": {"line1": "1 34432U 93036RZ  25337.10297536  .00002856  00000+0  16055-2 0  9999", "line2": "2 34432  73.8275 119.3014 0183184 203.4360 276.5797 14.02836729855498"}}, "geometry": {"type": "Point", "coordinates": [133.80415367999748, 44.148772825340664]}}, {"type": "Feature", "properties": {"norad_id": 34433, "name": "COSMOS 2251 DEB", "group": "cosmos-2251-debris", "lat": 51.85983641663611, "lon": -31.279369717913543, "alt_km": 953.9040739489456, "timestamp": "2025-12-04T03:47:54.936386+00:00", "meta": {"OBJECT_NAME": "COSMOS 2251 DEB", "OBJECT_ID": "1993-036SA", "EPOCH": "2025-12-03T00:00:45.111168", "MEAN_MOTION": 14.12779901, "ECCENTRICITY": 0.01517359, "INCLINATION": 74.0107, "RA_OF_ASC_NODE": 172.1866, "ARG_OF_PERICENTER": 312.4155, "MEAN_ANOMALY": 46.4228, "EPHEMERIS_TYPE": 0, "CLASSIFICATION_TYPE": "U", "NORAD_CAT_ID": 34433, "ELEMENT_SET_NO": 999, "REV_AT_EPOCH": 85812, "BSTAR": 0.0017302028, "MEAN_MOTION_DOT": 3.559e-05, "MEAN_MOTION_DDOT": 0}, "tle": {"line1": "1 34433U 93036SA  25337.00052212  .00003559  00000+0  17302-2 0  9996", "line2": "2 34433  74.0107 172.1866 0151735 312.4155  46.4228 14.12779901858123"}}, "geometry": {"type": "Point", "coordinates": [-31.279369717913543, 51.85983641663611]}}, {"type": "Feature", "properties": {"norad_id": 34434, "name": "COSMOS 2251 DEB", "group": "cosmos-2251-debris", "lat": 5.688579950964201, "lon": 26.34980345125579, "alt_km": 1117.8431069203252, "timestamp": "2025-12-04T03:47:54.936396+00:00", "meta": {"OBJECT_NAME": "COSMOS 2251 DEB", "OBJECT_ID": "1993-036SB", "EPOCH": "2025-12-03T12:50:14.161632", "MEAN_MOTION": 13.89695023, "ECCENTRICITY": 0.0276333, "INCLINATION": 74.064, "RA_OF_ASC_NODE": 25.7785, "ARG_OF_PERICENTER": 165.1837, "MEAN_ANOMALY": 324.4986, "EPHEMERIS_TYPE": 0, "CLASSIFICATION_TYPE": "U", "NORAD_CAT_ID": 34434, "ELEMENT_SET_NO": 999, "REV_AT_EPOCH": 83838, "BSTAR": 0.0039719, "MEAN_MOTION_DOT": 6.605e-05, "MEAN_MOTION_DDOT": 0}, "tle": {"line1": "1 34434U 93036SB  25337.53488613  .00006605  00000+0  39719-2 0  9994", "line2": "2 34434  74.0640  25.7785 0276333 165.1837 324.4986 13.89695023838382"}}, "geometry": {"type": "Point", "coordinates": [26.34980345125579, 5.688579950964201]}}, {"type": "Feature", "properties": {"norad_id": 34446, "name": "COSMOS 2251 DEB", "group": "cosmos-2251-debris", "lat": 24.655477575935393, "lon": -114.1728291043104, "alt_km": 707.8341935793051, "timestamp": "2025-12-04T03:47:54.936407+00:00", "meta": {"OBJECT_NAME": "COSMOS 2251 DEB", "OBJECT_ID": "1993-036SP", "EPOCH": "2025-12-03T10:31:10.797024", "MEAN_MOTION": 14.49334072, "ECCENTRICITY": 0.0051573, "INCLINATION": 74.0422, "RA_OF_ASC_NODE": 74.7236, "ARG_OF_PERICENTER": 214.8277, "MEAN_ANOMALY": 144.9505, "EPHEMERIS_TYPE": 0, "CLASSIFICATION_TYPE": "U", "NORAD_CAT_ID": 34446, "ELEMENT_SET_NO": 999, "REV_AT_EPOCH": 88559, "BSTAR": 0.00025913, "MEAN_MOTION_DOT": 9.78e-06, "MEAN_MOTION_DDOT": 0}, "tle": {"line1": "1 34446U 93036SP  25337.43831941  .00000978  00000+0  25913-3 0  9991", "line2": "2 34446  74.0422  74.7236 0051573 214.8277 144.9505 14.49334072885593"}}, "geometry": {"type": "Point", "coordinates": [-114.1728291043104, 24.655477575935393]}}, {"type": "Feature", "properties": {"norad_id": 34449, "name": "COSMOS 2251 DEB", "group": "cosmos-2251-debris", "lat": -10.673690246180174, "lon": 84.75999510864499, "alt_km": 604.103736004964, "timestamp": "2025-12-04T03:47:54.936417+00:00", "meta": {"OBJECT_NAME": "COSMOS 2251 DEB", "OBJECT_ID": "1993-036SS", "EPOCH": "2025-12-03T18:45:32.810400", "MEAN_MOTION": 14.93927171, "ECCENTRICITY": 0.0024845, "INCLINATION": 74.0322, "RA_OF_ASC_NODE": 88.6117, "ARG_OF_PERICENTER": 137.2898, "MEAN_ANOMALY": 347.0572, "EPHEMERIS_TYPE": 0, "CLASSIFICATION_TYPE": "U", "NORAD_CAT_ID": 34449, "ELEMENT_SET_NO": 999, "REV_AT_EPOCH": 88559, "BSTAR": 0.0049074, "MEAN_MOTION_DOT": 0.00052908, "MEAN_MOTION_DDOT": 0}, "tle": {"line1": "1 34449U 93036SS  25337.78162975  .00052908  00000+0  49074-2 0  9999", "line2": "2 34449  74.0322  88.6117 0024845 137.2898 347.0572 14.93927171885593"}}, "geometry": {"type": "Point", "coordinates": [84.75999510864499, -10.673690246180174]}}, {"type": "Feature", "properties": {"norad_id": 34451, "name": "COSMOS 2251 DEB", "group": "cosmos-2251-debris", "lat": -57.51250161048064, "lon": 78.47039597520147, "alt_km": 607.7762246237899, "timestamp": "2025-12-04T03:47:54.936427+00:00", "meta": {"OBJECT_NAME": "COSMOS 2251 DEB", "OBJECT_ID": "1993-036SU", "EPOCH": "2025-12-02T10:18:18.339552", "MEAN_MOTION": 14.94509424, "ECCENTRICITY": 0.00259091, "INCLINATION": 74.0446, "RA_OF_ASC_NODE": 108.65, "ARG_OF_PERICENTER": 135.584, "MEAN_ANOMALY": 224.7428, "EPHEMERIS_TYPE": 0, "CLASSIFICATION_TYPE": "U", "NORAD_CAT_ID": 34451, "ELEMENT_SET_NO": 999, "REV_AT_EPOCH": 88481, "BSTAR": 0.0036537809, "MEAN_MOTION_DOT": 0.00039917, "MEAN_MOTION_DDOT": 0}, "tle": {"line1": "1 34451U 93036SU  25336.42937893  .00039917  00000+0  36538-2 0  9997", "line2": "2 34451  74.0446 108.6500 0025909 135.5840 224.7428 14.94509424884815"}}, "geometry": {"type": "Point", "coordinates": [78.47039597520147, -57.51250161048064]}}, {"type": "Feature", "properties": {"norad_id": 34452, "name": "COSMOS 2251 DEB", "group": "cosmos-2251-debris", "lat": -59.713485112573686, "lon": 49.92458903589548, "alt_km": 500.6915485705531, "timestamp": "2025-12-04T03:47:54.936437+00:00", "meta": {"OBJECT_NAME": "COSMOS 2251 DEB", "OBJECT_ID": "1993-036SV", "EPOCH": "2025-12-03T17:41:07.353024", "MEAN_MOTION": 15.1130014, "ECCENTRICITY": 0.006732, "INCLINATION": 74.0359, "RA_OF_ASC_NODE": 201.4454, "ARG_OF_PERICENTER": 279.6896, "MEAN_ANOMALY": 192.9722, "EPHEMERIS_TYPE": 0, "CLASSIFICATION_TYPE": "U", "NORAD_CAT_ID": 34452, "ELEMENT_SET_NO": 999, "REV_AT_EPOCH": 90526, "BSTAR": 0.0011398, "MEAN_MOTION_DOT": 0.00020286, "MEAN_MOTION_DDOT": 0}, "tle": {"line1": "1 34452U 93036SV  25337.73689066  .00020286  00000+0  11398-2 0  9995", "line2": "2 34452  74.0359 201.4454 0067320 279.6896 192.9722 15.11300140905263"}}, "geometry": {"type": "Point", "coordinates": [49.92458903589548, -59.713485112573686]}}, {"type": "Feature", "properties": {"norad_id": 34453, "name": "COSMOS 2251 DEB", "group": "cosmos-2251-debris", "lat": 73.05428931780237, "lon": -172.3221767585403, "alt_km": 384.4043156763246, "timestamp": "2025-12-04T03:47:54.936458+00:00", "meta": {"OBJECT_NAME": "COSMOS 2251 DEB", "OBJECT_ID": "1993-036SW", "EPOCH": "2025-12-03T12:01:51.170016", "MEAN_MOTION": 15.57633461, "ECCENTRICITY": 0.0018759, "INCLINATION": 74.1173, "RA_OF_ASC_NODE": 119.9821, "ARG_OF_PERICENTER": 353.7042, "MEAN_ANOMALY": 6.3937, "EPHEMERIS_TYPE": 0, "CLASSIFICATION_TYPE": "U", "NORAD_CAT_ID": 34453, "ELEMENT_SET_NO": 999, "REV_AT_EPOCH": 88722, "BSTAR": 0.011553, "MEAN_MOTION_DOT": 0.00949896, "MEAN_MOTION_DDOT": 0}, "tle": {"line1": "1 34453U 93036SW  25337.50128669  .00949896  00000+0  11553-1 0  9997", "line2": "2 34453  74.1173 119.9821 0018759 353.7042   6.3937 15.57633461887225"}}, "geometry": {"type": "Point", "coordinates": [-172.3221767585403, 73.05428931780237]}}, {"type": "Feature", "properties": {"norad_id": 34454, "name": "COSMOS 2251 DEB", "group": "cosmos-2251-debris", "lat": 2.368176737419688, "lon": -65.8811551525807, "alt_km": 739.7574940101031, "timestamp": "2025-12-04T03:47:54.936469+00:00", "meta": {"OBJECT_NAME": "COSMOS 2251 DEB", "OBJECT_ID": "1993-036SX", "EPOCH": "2025-12-03T14:26:14.256096", "MEAN_MOTION": 14.38782265, "ECCENTRICITY": 0.0035214, "INCLINATION": 74.0585, "RA_OF_ASC_NODE": 294.4664, "ARG_OF_PERICENTER": 359.0088, "MEAN_ANOMALY": 1.099, "EPHEMERIS_TYPE": 0, "CLASSIFICATION_TYPE": "U", "NORAD_CAT_ID": 34454, "ELEMENT_SET_NO": 999, "REV_AT_EPOCH": 87936, "BSTAR": 0.00041217, "MEAN_MOTION_DOT": 1.25e-05, "MEAN_MOTION_DDOT": 0}, "tle": {"line1": "1 34454U 93036SX  25337.60155389  .00001250  00000+0  41217-3 0  9993", "line2": "2 34454  74.0585 294.4664 0035214 359.0088   1.0990 14.38782265879362"}}, "geometry": {"type": "Point", "coordinates": [-65.8811551525807, 2.368176737419688]}}, {"type": "Feature", "properties": {"norad_id": 34459, "name": "COSMOS 2251 DEB", "group": "cosmos-2251-debris", "lat": 68.22131503213065, "lon": 43.28707128579537, "alt_km": 962.2065489497709, "timestamp": "2025-12-04T03:47:54.936480+00:00", "meta": {"OBJECT_NAME": "COSMOS 2251 DEB", "OBJECT_ID": "1993-036TC", "EPOCH": "2025-12-03T05:01:03.597024", "MEAN_MOTION": 14.0046957, "ECCENTRICITY": 0.019187, "INCLINATION": 74.0791, "RA_OF_ASC_NODE": 270.5208, "ARG_OF_PERICENTER": 342.4626, "MEAN_ANOMALY": 16.9939, "EPHEMERIS_TYPE": 0, "CLASSIFICATION_TYPE": "U", "NORAD_CAT_ID": 34459, "ELEMENT_SET_NO": 999, "REV_AT_EPOCH": 85578, "BSTAR": 0.00090382, "MEAN_MOTION_DOT": 1.548e-05, "MEAN_MOTION_DDOT": 0}, "tle": {"line1": "1 34459U 93036TC  25337.20906941  .00001548  00000+0  90382-3 0  9999", "line2": "2 34459  74.0791 270.5208 0191870 342.4626  16.9939 14.00469570855788"}}, "geometry": {"type": "Point", "coordinates": [43.28707128579537, 68.22131503213065]}}]}